start=new Date('2022-08-11T00:00:00.000Z').valueOf();
sats=[{"LAUNCH_DATE":"2022-07-17","NORAD_CAT_ID":"53176","EPHEMERIS_TYPE":"0","DECAY_DATE":null,"COUNTRY_CODE":"US","APOAPSIS":"351.586","GP_ID":"209998935","ECCENTRICITY":"0.00026410","ELEMENT_SET_NO":"999","TIME_SYSTEM":"UTC","INCLINATION":"53.2175","ARG_OF_PERICENTER":"11.6789","FILE":"3533963","MEAN_ANOMALY":"73.2769","BSTAR":"-0.00009836400000","REV_AT_EPOCH":"130","OBJECT_TYPE":"PAYLOAD","EPOCH":"2022-08-10T22:00:00.999936","PERIAPSIS":"348.033","SITE":"AFETR","REF_FRAME":"TEME","RCS_SIZE":"LARGE","MEAN_ELEMENT_THEORY":"SGP4","CLASSIFICATION_TYPE":"U","OBJECT_NAME":"STARLINK-4294","TLE_LINE2":"2 53176  53.2175 286.4196 0002641  11.6789  73.2769 15.73182711  1302","OBJECT_ID":"2022-083AW","PERIOD":"91.534","MEAN_MOTION_DDOT":"0.0000000000000","TLE_LINE1":"1 53176U 22083AW  22222.91667824 -.00014395  00000-0 -98364-4 0  9998","CENTER_NAME":"EARTH","RA_OF_ASC_NODE":"286.4196","SEMIMAJOR_AXIS":"6727.944","MEAN_MOTION_DOT":"-0.00014395","MEAN_MOTION":"15.73182711"},{"REF_FRAME":"TEME","SITE":"AFETR","MEAN_ELEMENT_THEORY":"SGP4","RCS_SIZE":"LARGE","OBJECT_NAME":"STARLINK-4298","TLE_LINE2":"2 53177  53.2185 286.4192 0002905  17.6619  69.6932 15.73180781  1307","CLASSIFICATION_TYPE":"U","MEAN_MOTION_DDOT":"0.0000000000000","OBJECT_ID":"2022-083AX","PERIOD":"91.534","CENTER_NAME":"EARTH","RA_OF_ASC_NODE":"286.4192","TLE_LINE1":"1 53177U 22083AX  22222.91667824  .00028847  00000-0  20940-3 0  9998","SEMIMAJOR_AXIS":"6727.950","MEAN_MOTION_DOT":"0.00028847","MEAN_MOTION":"15.73180781","NORAD_CAT_ID":"53177","LAUNCH_DATE":"2022-07-17","COUNTRY_CODE":"US","DECAY_DATE":null,"APOAPSIS":"351.769","EPHEMERIS_TYPE":"0","ECCENTRICITY":"0.00029050","GP_ID":"209999443","ELEMENT_SET_NO":"999","FILE":"3533963","ARG_OF_PERICENTER":"17.6619","TIME_SYSTEM":"UTC","INCLINATION":"53.2185","OBJECT_TYPE":"PAYLOAD","MEAN_ANOMALY":"69.6932","BSTAR":"0.00020940000000","REV_AT_EPOCH":"130","EPOCH":"2022-08-10T22:00:00.999936","PERIAPSIS":"347.860"},{"REF_FRAME":"TEME","SITE":"AFETR","MEAN_ELEMENT_THEORY":"SGP4","RCS_SIZE":"LARGE","OBJECT_NAME":"STARLINK-4280","TLE_LINE2":"2 53178  53.2175 285.9568 0001861  29.6633 281.3211 15.73195799  1305","CLASSIFICATION_TYPE":"U","MEAN_MOTION_DDOT":"0.0000000000000","OBJECT_ID":"2022-083AY","PERIOD":"91.533","CENTER_NAME":"EARTH","RA_OF_ASC_NODE":"285.9568","TLE_LINE1":"1 53178U 22083AY  22222.91667824  .00022598  00000-0  16502-3 0  9995","SEMIMAJOR_AXIS":"6727.907","MEAN_MOTION_DOT":"0.00022598","MEAN_MOTION":"15.73195799","NORAD_CAT_ID":"53178","LAUNCH_DATE":"2022-07-17","DECAY_DATE":null,"COUNTRY_CODE":"US","APOAPSIS":"351.024","EPHEMERIS_TYPE":"0","ECCENTRICITY":"0.00018610","GP_ID":"209998670","ELEMENT_SET_NO":"999","ARG_OF_PERICENTER":"29.6633","FILE":"3533963","TIME_SYSTEM":"UTC","INCLINATION":"53.2175","OBJECT_TYPE":"PAYLOAD","BSTAR":"0.00016502000000","REV_AT_EPOCH":"130","MEAN_ANOMALY":"281.3211","EPOCH":"2022-08-10T22:00:00.999936","PERIAPSIS":"348.520"},{"SEMIMAJOR_AXIS":"6727.967","MEAN_MOTION_DOT":"0.00030259","MEAN_MOTION":"15.73174961","MEAN_MOTION_DDOT":"0.0000000000000","OBJECT_ID":"2022-083AZ","PERIOD":"91.535","CENTER_NAME":"EARTH","RA_OF_ASC_NODE":"286.4097","TLE_LINE1":"1 53179U 22083AZ  22222.91667824  .00030259  00000-0  21946-3 0  9997","OBJECT_NAME":"STARLINK-4276","TLE_LINE2":"2 53179  53.2182 286.4097 0002452  18.6260  72.7446 15.73174961  1308","CLASSIFICATION_TYPE":"U","REF_FRAME":"TEME","SITE":"AFETR","MEAN_ELEMENT_THEORY":"SGP4","RCS_SIZE":"LARGE","EPOCH":"2022-08-10T22:00:00.999936","PERIAPSIS":"348.182","FILE":"3533963","ARG_OF_PERICENTER":"18.6260","TIME_SYSTEM":"UTC","INCLINATION":"53.2182","OBJECT_TYPE":"PAYLOAD","REV_AT_EPOCH":"130","BSTAR":"0.00021946000000","MEAN_ANOMALY":"72.7446","ECCENTRICITY":"0.00024520","GP_ID":"209998781","ELEMENT_SET_NO":"999","NORAD_CAT_ID":"53179","LAUNCH_DATE":"2022-07-17","COUNTRY_CODE":"US","DECAY_DATE":null,"APOAPSIS":"351.481","EPHEMERIS_TYPE":"0"},{"MEAN_ELEMENT_THEORY":"SGP4","RCS_SIZE":"LARGE","REF_FRAME":"TEME","SITE":"AFETR","TLE_LINE2":"2 53180  53.2181 286.4183 0003101  13.1312  73.5641 15.73227556  1300","OBJECT_NAME":"STARLINK-4258","CLASSIFICATION_TYPE":"U","RA_OF_ASC_NODE":"286.4183","CENTER_NAME":"EARTH","TLE_LINE1":"1 53180U 22083BA  22222.91667824 -.00075355  00000-0 -53649-3 0  9992","MEAN_MOTION_DDOT":"0.0000000000000","PERIOD":"91.532","OBJECT_ID":"2022-083BA","MEAN_MOTION":"15.73227556","MEAN_MOTION_DOT":"-0.00075355","SEMIMAJOR_AXIS":"6727.817","APOAPSIS":"351.768","COUNTRY_CODE":"US","DECAY_DATE":null,"EPHEMERIS_TYPE":"0","NORAD_CAT_ID":"53180","LAUNCH_DATE":"2022-07-17","ELEMENT_SET_NO":"999","ECCENTRICITY":"0.00031010","GP_ID":"209998538","OBJECT_TYPE":"PAYLOAD","REV_AT_EPOCH":"130","BSTAR":"-0.00053649000000","MEAN_ANOMALY":"73.5641","ARG_OF_PERICENTER":"13.1312","FILE":"3533963","INCLINATION":"53.2181","TIME_SYSTEM":"UTC","PERIAPSIS":"347.595","EPOCH":"2022-08-10T22:00:00.999936"},{"CLASSIFICATION_TYPE":"U","TLE_LINE2":"2 53181  53.2182 286.4162 0002366  20.6484  67.7000 15.73183903  1305","OBJECT_NAME":"STARLINK-4273","RCS_SIZE":"LARGE","MEAN_ELEMENT_THEORY":"SGP4","SITE":"AFETR","REF_FRAME":"TEME","MEAN_MOTION":"15.73183903","MEAN_MOTION_DOT":"0.00029470","SEMIMAJOR_AXIS":"6727.941","TLE_LINE1":"1 53181U 22083BB  22222.91667824  .00029470  00000-0  21379-3 0  9993","RA_OF_ASC_NODE":"286.4162","CENTER_NAME":"EARTH","PERIOD":"91.534","OBJECT_ID":"2022-083BB","MEAN_MOTION_DDOT":"0.0000000000000","ELEMENT_SET_NO":"999","GP_ID":"209999311","ECCENTRICITY":"0.00023660","EPHEMERIS_TYPE":"0","APOAPSIS":"351.398","DECAY_DATE":null,"COUNTRY_CODE":"US","LAUNCH_DATE":"2022-07-17","NORAD_CAT_ID":"53181","PERIAPSIS":"348.214","EPOCH":"2022-08-10T22:00:00.999936","BSTAR":"0.00021379000000","MEAN_ANOMALY":"67.7000","REV_AT_EPOCH":"130","OBJECT_TYPE":"PAYLOAD","INCLINATION":"53.2182","TIME_SYSTEM":"UTC","FILE":"3533963","ARG_OF_PERICENTER":"20.6484"},{"MEAN_MOTION":"15.73224470","SEMIMAJOR_AXIS":"6727.825","MEAN_MOTION_DOT":"-0.00009739","TLE_LINE1":"1 53182U 22083BC  22222.91667824 -.00009739  00000-0 -64956-4 0  9991","CENTER_NAME":"EARTH","RA_OF_ASC_NODE":"286.4155","OBJECT_ID":"2022-083BC","PERIOD":"91.532","MEAN_MOTION_DDOT":"0.0000000000000","CLASSIFICATION_TYPE":"U","OBJECT_NAME":"STARLINK-4278","TLE_LINE2":"2 53182  53.2181 286.4155 0002517  19.0489  68.8230 15.73224470  1304","RCS_SIZE":"LARGE","MEAN_ELEMENT_THEORY":"SGP4","SITE":"AFETR","REF_FRAME":"TEME","PERIAPSIS":"347.997","EPOCH":"2022-08-10T22:00:00.999936","BSTAR":"-0.00006495600000","REV_AT_EPOCH":"130","MEAN_ANOMALY":"68.8230","OBJECT_TYPE":"PAYLOAD","TIME_SYSTEM":"UTC","INCLINATION":"53.2181","ARG_OF_PERICENTER":"19.0489","FILE":"3533963","ELEMENT_SET_NO":"999","GP_ID":"209999068","ECCENTRICITY":"0.00025170","EPHEMERIS_TYPE":"0","COUNTRY_CODE":"US","DECAY_DATE":null,"APOAPSIS":"351.384","LAUNCH_DATE":"2022-07-17","NORAD_CAT_ID":"53182"},{"MEAN_MOTION_DDOT":"0.0000000000000","OBJECT_ID":"2022-083BD","PERIOD":"91.535","CENTER_NAME":"EARTH","RA_OF_ASC_NODE":"286.4129","TLE_LINE1":"1 53183U 22083BD  22222.91667824  .00029283  00000-0  21258-3 0  9993","MEAN_MOTION_DOT":"0.00029283","SEMIMAJOR_AXIS":"6727.982","MEAN_MOTION":"15.73169584","REF_FRAME":"TEME","SITE":"AFETR","MEAN_ELEMENT_THEORY":"SGP4","RCS_SIZE":"LARGE","OBJECT_NAME":"STARLINK-4268","TLE_LINE2":"2 53183  53.2181 286.4129 0003220  18.0541  71.5030 15.73169584  1309","CLASSIFICATION_TYPE":"U","FILE":"3533963","ARG_OF_PERICENTER":"18.0541","TIME_SYSTEM":"UTC","INCLINATION":"53.2181","OBJECT_TYPE":"PAYLOAD","BSTAR":"0.00021258000000","MEAN_ANOMALY":"71.5030","REV_AT_EPOCH":"130","EPOCH":"2022-08-10T22:00:00.999936","PERIAPSIS":"347.680","NORAD_CAT_ID":"53183","LAUNCH_DATE":"2022-07-17","COUNTRY_CODE":"US","DECAY_DATE":null,"APOAPSIS":"352.013","EPHEMERIS_TYPE":"0","ECCENTRICITY":"0.00032200","GP_ID":"209999179","ELEMENT_SET_NO":"999"},{"MEAN_MOTION":"15.73180224","SEMIMAJOR_AXIS":"6727.952","MEAN_MOTION_DOT":"0.00003979","CENTER_NAME":"EARTH","RA_OF_ASC_NODE":"286.4115","TLE_LINE1":"1 53184U 22083BE  22222.91667824  .00003979  00000-0  32795-4 0  9997","MEAN_MOTION_DDOT":"0.0000000000000","OBJECT_ID":"2022-083BE","PERIOD":"91.534","OBJECT_NAME":"STARLINK-4257","TLE_LINE2":"2 53184  53.2186 286.4115 0002569  18.6612  72.3078 15.73180224  1305","CLASSIFICATION_TYPE":"U","MEAN_ELEMENT_THEORY":"SGP4","RCS_SIZE":"LARGE","REF_FRAME":"TEME","SITE":"AFETR","PERIAPSIS":"348.088","EPOCH":"2022-08-10T22:00:00.999936","OBJECT_TYPE":"PAYLOAD","MEAN_ANOMALY":"72.3078","BSTAR":"0.00003279500000","REV_AT_EPOCH":"130","ARG_OF_PERICENTER":"18.6612","FILE":"3533963","TIME_SYSTEM":"UTC","INCLINATION":"53.2186","ELEMENT_SET_NO":"999","ECCENTRICITY":"0.00025690","GP_ID":"209998936","COUNTRY_CODE":"US","DECAY_DATE":null,"APOAPSIS":"351.545","EPHEMERIS_TYPE":"0","NORAD_CAT_ID":"53184","LAUNCH_DATE":"2022-07-17"},{"SITE":"AFWTR","REF_FRAME":"TEME","RCS_SIZE":"LARGE","MEAN_ELEMENT_THEORY":"SGP4","CLASSIFICATION_TYPE":"U","TLE_LINE2":"2 53189  97.6555 282.0567 0001745 104.8461 188.4330 15.57231187  1307","OBJECT_NAME":"STARLINK-4391","PERIOD":"92.472","OBJECT_ID":"2022-084A","MEAN_MOTION_DDOT":"0.0000000000000","TLE_LINE1":"1 53189U 22084A   22222.91667824 -.01064217  00000-0 -16093-1 0  9998","RA_OF_ASC_NODE":"282.0567","CENTER_NAME":"EARTH","SEMIMAJOR_AXIS":"6773.812","MEAN_MOTION_DOT":"-0.01064217","MEAN_MOTION":"15.57231187","LAUNCH_DATE":"2022-07-22","NORAD_CAT_ID":"53189","EPHEMERIS_TYPE":"0","APOAPSIS":"396.859","DECAY_DATE":null,"COUNTRY_CODE":"US","GP_ID":"209999444","ECCENTRICITY":"0.00017450","ELEMENT_SET_NO":"999","INCLINATION":"97.6555","TIME_SYSTEM":"UTC","FILE":"3533963","ARG_OF_PERICENTER":"104.8461","BSTAR":"-0.01609300000000","REV_AT_EPOCH":"130","MEAN_ANOMALY":"188.4330","OBJECT_TYPE":"PAYLOAD","EPOCH":"2022-08-10T22:00:00.999936","PERIAPSIS":"394.495"}];
